[{"OBJECT_NAME":"OBJECT V","OBJECT_ID":"2023-085V","EPOCH":"2026-03-09T21:44:00.165408","MEAN_MOTION":15.30745852,"ECCENTRICITY":0.00069081,"INCLINATION":97.4843,"RA_OF_ASC_NODE":179.3833,"ARG_OF_PERICENTER":71.0503,"MEAN_ANOMALY":289.1485,"EPHEMERIS_TYPE":0,"CLASSIFICATION_TYPE":"U","NORAD_CAT_ID":57023,"ELEMENT_SET_NO":999,"REV_AT_EPOCH":15149,"BSTAR":0.00067780507,"MEAN_MOTION_DOT":0.00020109,"MEAN_MOTION_DDOT":0},{"OBJECT_NAME":"STARLINK-31581","OBJECT_ID":"2024-068V","EPOCH":"2026-03-09T22:38:35.616192","MEAN_MOTION":15.27565767,"ECCENTRICITY":0.0001373,"INCLINATION":43.0058,"RA_OF_ASC_NODE":25.9663,"ARG_OF_PERICENTER":272.1842,"MEAN_ANOMALY":87.8853,"EPHEMERIS_TYPE":0,"CLASSIFICATION_TYPE":"U","NORAD_CAT_ID":59474,"ELEMENT_SET_NO":999,"REV_AT_EPOCH":10864,"BSTAR":4.456418e-5,"MEAN_MOTION_DOT":9.64e-6,"MEAN_MOTION_DDOT":0}]
